COMAK Settle Simulation States
inDegrees=no
nColumns=105
nRows=21
DataType=double
version=3
OpenSimVersion=4.3-2021-06-27-54b40380c
endheader
time	/jointset/gnd_pelvis/pelvis_tilt/value	/jointset/gnd_pelvis/pelvis_tilt/speed	/jointset/gnd_pelvis/pelvis_list/value	/jointset/gnd_pelvis/pelvis_list/speed	/jointset/gnd_pelvis/pelvis_rot/value	/jointset/gnd_pelvis/pelvis_rot/speed	/jointset/gnd_pelvis/pelvis_tx/value	/jointset/gnd_pelvis/pelvis_tx/speed	/jointset/gnd_pelvis/pelvis_ty/value	/jointset/gnd_pelvis/pelvis_ty/speed	/jointset/gnd_pelvis/pelvis_tz/value	/jointset/gnd_pelvis/pelvis_tz/speed	/jointset/hip_r/hip_flex_r/value	/jointset/hip_r/hip_flex_r/speed	/jointset/hip_r/hip_add_r/value	/jointset/hip_r/hip_add_r/speed	/jointset/hip_r/hip_rot_r/value	/jointset/hip_r/hip_rot_r/speed	/jointset/pf_r/pf_flex_r/value	/jointset/pf_r/pf_flex_r/speed	/jointset/pf_r/pf_rot_r/value	/jointset/pf_r/pf_rot_r/speed	/jointset/pf_r/pf_tilt_r/value	/jointset/pf_r/pf_tilt_r/speed	/jointset/pf_r/pf_tx_r/value	/jointset/pf_r/pf_tx_r/speed	/jointset/pf_r/pf_ty_r/value	/jointset/pf_r/pf_ty_r/speed	/jointset/pf_r/pf_tz_r/value	/jointset/pf_r/pf_tz_r/speed	/jointset/knee_r/knee_flex_r/value	/jointset/knee_r/knee_flex_r/speed	/jointset/knee_r/knee_add_r/value	/jointset/knee_r/knee_add_r/speed	/jointset/knee_r/knee_rot_r/value	/jointset/knee_r/knee_rot_r/speed	/jointset/knee_r/knee_tx_r/value	/jointset/knee_r/knee_tx_r/speed	/jointset/knee_r/knee_ty_r/value	/jointset/knee_r/knee_ty_r/speed	/jointset/knee_r/knee_tz_r/value	/jointset/knee_r/knee_tz_r/speed	/jointset/ankle_r/ankle_flex_r/value	/jointset/ankle_r/ankle_flex_r/speed	/jointset/subtalar_r/subt_angle_r/value	/jointset/subtalar_r/subt_angle_r/speed	/jointset/mtp_r/mtp_angle_r/value	/jointset/mtp_r/mtp_angle_r/speed	/jointset/hip_l/hip_flex_l/value	/jointset/hip_l/hip_flex_l/speed	/jointset/hip_l/hip_add_l/value	/jointset/hip_l/hip_add_l/speed	/jointset/hip_l/hip_rot_l/value	/jointset/hip_l/hip_rot_l/speed	/jointset/pf_l/pf_l_r3/value	/jointset/pf_l/pf_l_r3/speed	/jointset/pf_l/pf_l_tx/value	/jointset/pf_l/pf_l_tx/speed	/jointset/pf_l/pf_l_ty/value	/jointset/pf_l/pf_l_ty/speed	/jointset/knee_l/knee_flex_l/value	/jointset/knee_l/knee_flex_l/speed	/jointset/ankle_l/ankle_flex_l/value	/jointset/ankle_l/ankle_flex_l/speed	/jointset/subtalar_l/subt_angle_l/value	/jointset/subtalar_l/subt_angle_l/speed	/jointset/mtp_l/mtp_angle_l/value	/jointset/mtp_l/mtp_angle_l/speed	/jointset/pelvis_torso/lumbar_ext/value	/jointset/pelvis_torso/lumbar_ext/speed	/jointset/pelvis_torso/lumbar_latbend/value	/jointset/pelvis_torso/lumbar_latbend/speed	/jointset/pelvis_torso/lumbar_rot/value	/jointset/pelvis_torso/lumbar_rot/speed	/jointset/torso_neckhead/neck_ext/value	/jointset/torso_neckhead/neck_ext/speed	/jointset/torso_neckhead/neck_latbend/value	/jointset/torso_neckhead/neck_latbend/speed	/jointset/torso_neckhead/neck_rot/value	/jointset/torso_neckhead/neck_rot/speed	/jointset/acromial_r/arm_add_r/value	/jointset/acromial_r/arm_add_r/speed	/jointset/acromial_r/arm_flex_r/value	/jointset/acromial_r/arm_flex_r/speed	/jointset/acromial_r/arm_rot_r/value	/jointset/acromial_r/arm_rot_r/speed	/jointset/elbow_r/elbow_flex_r/value	/jointset/elbow_r/elbow_flex_r/speed	/jointset/radioulnar_r/pro_sup_r/value	/jointset/radioulnar_r/pro_sup_r/speed	/jointset/radius_hand_r/wrist_flex_r/value	/jointset/radius_hand_r/wrist_flex_r/speed	/jointset/acromial_l/arm_add_l/value	/jointset/acromial_l/arm_add_l/speed	/jointset/acromial_l/arm_flex_l/value	/jointset/acromial_l/arm_flex_l/speed	/jointset/acromial_l/arm_rot_l/value	/jointset/acromial_l/arm_rot_l/speed	/jointset/elbow_l/elbow_flex_l/value	/jointset/elbow_l/elbow_flex_l/speed	/jointset/radioulnar_l/pro_sup_l/value	/jointset/radioulnar_l/pro_sup_l/speed	/jointset/radius_hand_l/wrist_flex_l/value	/jointset/radius_hand_l/wrist_flex_l/speed
0.01	-0.0668547059107835	4.690688175732583e-10	0.09939340539302524	1.048043176026855e-11	0.08039589665695877	-3.284689671557243e-10	-0.01677138757272416	-9.528185285516719e-12	0.876831455112696	-1.47256513850684e-12	0.1974736191789413	1.967748744070107e-11	0.5864537955235237	3.274936947112831e-11	-0.1700298300609168	9.84478178315507e-11	-0.1731210398342149	-1.979390556859952e-11	0.1998826315526341	0.3247344077064672	0.01017552498883985	0.1143435650406118	-0.01185537067712118	0.01776819757142459	0.05069738226384293	-0.02042068926819618	-0.005700001675174415	-0.1034775488188718	0.004593707616314365	-0.02626033408751516	0.3092798344711223	-1.868143677186374e-10	0.01594052440466202	0.136961246948394	0.02616287506493916	0.01023254523279641	0.003891266155393196	-0.001244416987084565	0.0007127516958293767	0.01814525946124463	-0.001396554227929716	0.01002223720893566	0.03576679193004558	-2.487569015863621e-10	-0.2394874561249006	-1.380436219022828e-11	1.040331739126592e-12	7.531550078439598e-10	-0.171768157401559	-4.128540154499461e-10	-0.1160204333659573	9.150876620147294e-11	-0.01179897277895048	-3.070656785432073e-10	0.001136855115014011	-2.973195911249845e-10	0.04434999999646257	-7.180764547744755e-10	-0.4187119999993952	2.035883868913192e-10	0.2010786042511034	-4.57023108619615e-11	0.3128508063188652	1.164603947281623e-10	0.01111542382413428	1.254570029948133e-10	5.388341189459892e-13	1.064395440424181e-10	-0.1671026861685345	-2.084567072745787e-10	-0.04597478782532173	-4.545498224950285e-10	-0.05862033046332334	1.162117604978537e-10	-1.046662486437821e-14	-6.987447694359514e-12	-1.610248531400902e-13	4.471483126736253e-13	5.353153976115163e-15	-2.704652386811344e-11	4.97956022568793e-13	-1.639083728642881e-10	-2.451531995784487e-13	-2.148304877463709e-10	5.273629715182675e-14	-2.664258949267413e-11	-1.803397007007028e-13	-1.093606428367339e-10	1.047197551196538	6.589652230639533e-12	-1.879915487504047e-13	1.27841459640807e-10	5.182098223204518e-13	3.0390797786139e-10	-8.734418636357719e-13	-3.230301302993388e-10	5.836432848771113e-14	-5.093671363806726e-11	-3.226048599121839e-13	-9.013222029241334e-11	1.047197551196548	-1.733231849725999e-11	-1.089763759094252e-14	8.668755422815832e-12
0.02	-0.06685470596373309	-1.076787761861538e-08	0.09939340541927796	5.188953882199131e-09	0.08039589664826989	-1.35152525060445e-09	-0.01677138757431602	-4.1368674195183e-10	0.8768314551123888	-1.94173650329989e-11	0.1974736191764602	-3.835325115622085e-10	0.586453795547917	4.466197711118591e-09	-0.1700298300604423	-2.979680176241854e-10	-0.1731210398217711	2.311389772607405e-09	0.201322036548315	0.2218792420237771	0.01083071337265522	0.08550378204780557	-0.01161997925691387	0.03037349438585668	0.05054536842179915	0.04316171546744248	-0.0062023889636443	0.02033317645676035	0.004591282830327119	0.02589902072899978	0.3092798344765155	1.214453581933639e-09	0.01722658610715925	0.05522004463999314	0.02617394621806526	0.01672116674407188	0.003751705179549062	-0.01039179752109608	0.0003884138773669824	0.02693313494138767	-0.001261671005405953	-0.003976646760265786	0.03576679194599597	3.486536784436214e-09	-0.2394874561114523	3.168586034191474e-09	1.349789042821637e-12	-1.93498205025453e-10	-0.1717681573927177	1.573530964721105e-09	-0.1160204333784037	-2.666276835100527e-09	-0.01179897275457019	4.623984601061474e-09	0.001136855111976315	-4.288208729770794e-10	0.04435000006285574	1.414510821704113e-08	-0.4187119999893245	1.797551311960712e-09	0.201078604287643	7.471650085298105e-09	0.3128508063159016	-8.495888696278623e-10	0.01111542381616564	-1.587920575233941e-09	-9.367833482192741e-12	-2.255129979982468e-09	-0.1671026861568856	3.058144471651468e-09	-0.04597478780546371	4.588085554358229e-09	-0.05862033046843847	-1.220858443744205e-09	-5.111781191069124e-12	-1.036959175454393e-09	-1.22560342392751e-12	-1.20448346123816e-10	-4.854289473168465e-12	-8.79572216685075e-10	9.316069029324313e-12	1.713320304032042e-09	-7.829093299522738e-12	-1.214107211186196e-09	-2.637725849952806e-12	-4.400971122411362e-10	2.948121556020009e-13	4.856412675725089e-11	1.047197551197637	2.106407028799824e-10	1.167557338352825e-11	2.235726075663518e-09	1.650927622347533e-11	2.616381420048595e-09	8.826138520985361e-13	6.214588653567421e-10	-2.040040021617155e-12	-3.649371349961653e-10	6.378603790596583e-12	1.361124218655014e-09	1.047197551198542	3.95713389471962e-10	6.699498400951514e-12	1.212715614670806e-09
0.03	-0.06685470601580629	-1.06986929640276e-09	0.09939340544855005	1.335230472815943e-09	0.08039589664601486	-5.296410068602408e-10	-0.01677138757399563	3.269412407310352e-10	0.8768314551110525	-2.259100203394019e-10	0.1974736191744266	-2.744303691507209e-10	0.5864537955753623	1.934509075321468e-09	-0.1700298300520607	1.909428821945199e-09	-0.1731210398109062	4.652102461167412e-10	0.2029516152699865	0.3034418837422393	0.01160100614064035	0.0929424013953698	-0.01136821556181204	-0.02243082576685991	0.05067179632569992	0.001673595109524174	-0.005934688774950531	0.01766606862760015	0.004553485262475158	-0.02735792771596562	0.3092798344885058	6.173976299060584e-10	0.01778406755860381	0.07364696053057922	0.02608206982742016	-0.0163089624722247	0.003650229690029204	-0.02339688451660695	0.0006702634775948701	-0.05644082638861123	-0.00125395909389556	0.01198595837877242	0.03576679197149411	7.3755992972175e-10	-0.2394874561055473	-1.901705059312642e-09	-4.952092583234192e-12	3.121463408458737e-10	-0.1717681573662338	2.475068391371322e-09	-0.1160204333915568	-1.438144225258647e-10	-0.01179897271935446	2.296491201537463e-09	0.001136855121769132	9.818758281747112e-10	0.04435000012324333	-4.406789040622055e-10	-0.4187119999774491	8.443992991424154e-10	0.2010786043148709	-3.917018687804185e-11	0.3128508063148985	7.958230976475471e-10	0.01111542380205712	-8.000036520187935e-10	-1.823680565191913e-11	6.065400026698106e-10	-0.1671026861438756	-1.255776067154171e-09	-0.0459747877876519	-8.288826277123515e-10	-0.05862033047011499	8.108583755313549e-10	-1.069304074867114e-11	-2.472562944149163e-10	-4.209340034672889e-12	-4.915942765109261e-10	-8.731728751128301e-12	-2.218709432040553e-10	3.68911429361462e-11	2.615549584873103e-09	-1.240435324987229e-11	-5.651205754396435e-10	-4.030521376375177e-12	-1.477335110579357e-10	2.815123156173933e-12	1.594301063041637e-10	1.047197551198116	-1.135068529663035e-11	1.821624121561369e-11	1.932412715119734e-10	2.943101049130803e-11	1.513510412371658e-09	-2.125369115758316e-12	-1.305431229713587e-09	-1.369209294784569e-12	3.234047003351095e-11	1.141627085894714e-11	-8.981690744667546e-11	1.047197551200597	8.478404690644946e-11	1.284166960019766e-11	4.750843620129527e-10
0.04	-0.06685470605110232	-3.889815413448796e-09	0.09939340547355889	3.277250767235707e-09	0.08039589664000478	-2.127851170191482e-10	-0.01677138757152246	3.850559137403154e-10	0.8768314551088504	-2.778925735101953e-10	0.1974736191713988	-1.677153068253546e-10	0.5864537956041751	3.53601248280634e-09	-0.1700298300339102	2.508682857792867e-09	-0.173121039800923	9.930776334483843e-10	0.2043548951050333	0.04973562785731719	0.01219811554626571	0.05106859284264106	-0.01121447529550777	0.02787595719042841	0.05053767273897958	0.008703036818161864	-0.006420787470017886	0.1652459346894494	0.00465159222576011	0.02846025478580581	0.3092798344985833	1.713935571403982e-09	0.01794452329687194	0.01248271588919086	0.02605778278834047	-0.03673589195133977	0.003554625620495252	-0.0126288441144765	0.0006097651824434036	0.03025248318737886	-0.001269697893008413	0.0004582511947361196	0.03576679198952179	3.443617629822951e-09	-0.2394874561138445	-9.575070102611397e-10	-6.179137897608136e-12	-2.860353059253561e-10	-0.1717681573349626	4.731139637741556e-09	-0.1160204333992697	-1.022010361151645e-09	-0.01179897268457293	4.876197385865282e-09	0.001136855132779602	2.252493927880447e-09	0.04435000015087691	2.576760531350126e-09	-0.4187119999634942	2.143505782838181e-09	0.2010786043296694	1.00932698363162e-09	0.3128508063198038	5.087771668907115e-10	0.01111542378884309	-2.111006938440663e-09	-1.875676401318062e-11	-3.228230041923591e-10	-0.1671026861463681	5.627105838418249e-10	-0.0459747877846365	-2.170792633279018e-11	-0.05862033046532115	7.448106689030876e-10	-1.580286154924209e-11	-4.901784760460936e-10	-9.486356606434536e-12	-7.140405448529287e-10	-1.282654763699645e-11	-4.212492151757524e-10	6.952230790802337e-11	5.080344902567239e-09	-1.950798195509878e-11	-6.554390915217721e-10	-6.012828776648678e-12	-1.131065580842301e-10	4.746690953739758e-12	5.075420795922769e-10	1.04719755119832	-4.777818102812515e-11	2.367416014114437e-11	2.691374375499269e-11	4.905894649957102e-11	1.890806214891968e-09	-1.351014513462868e-11	-1.674127342412463e-09	-1.032496928120066e-12	3.691114803121199e-10	1.347299143237882e-11	9.158156371752448e-11	1.047197551202538	2.132673802761234e-10	2.020986318326093e-11	6.75090483154563e-10
0.05	-0.0668547061147409	-5.661270577993924e-09	0.09939340552297053	4.798263627221689e-09	0.08039589662617487	-1.185673532161755e-09	-0.01677138756861385	5.749174835522854e-10	0.8768314551056832	-5.268974352481158e-10	0.197473619167981	-5.475853757543772e-10	0.5864537956552998	5.625394622146291e-09	-0.1700298300049175	4.216624035563979e-09	-0.1731210397838602	1.496363784768586e-09	0.2065446416436558	0.0117913350438604	0.01299682521619665	0.02699625985879629	-0.0111101093653193	0.03336206100789409	0.0504544606909151	-0.05044544561262908	-0.006459567422679361	-0.07478787997820646	0.004509372945300657	-0.006708140839235199	0.3092798345156658	2.061396182336026e-09	0.01793045434557793	-0.005355178521104571	0.0259281332839621	-0.02123149662923497	0.003481091391331582	-0.00724733635284274	0.0006473710756825611	-0.03366247455637748	-0.001255293460866559	0.003973357310491739	0.03576679202872463	3.808007416312478e-09	-0.2394874561207779	-2.353512137934264e-09	5.764015988982935e-12	1.186846216408949e-09	-0.1717681572881453	6.40039966565489e-09	-0.1160204334155976	-1.362369286925711e-09	-0.01179897262717159	6.748322571587568e-09	0.001136855149399037	2.495293029372681e-09	0.04435000020477101	3.619012013933235e-09	-0.4187119999356211	2.740192749379994e-09	0.2010786043620552	2.13098835331009e-09	0.3128508063269158	1.344124033607295e-09	0.01111542376608796	-2.624401300906637e-09	-2.355065683815022e-11	3.064496565214318e-10	-0.1671026861402818	-7.995756171786136e-10	-0.04597478778035716	-4.797634207791957e-10	-0.05862033045783874	1.402558088697586e-09	-2.410410575874325e-11	-8.495476748408965e-10	-1.848036744919273e-11	-1.146064106924939e-09	-1.973920981409158e-11	-6.735280487370542e-10	1.241276182703816e-10	6.958599896661254e-09	-3.439009387437691e-11	-1.521622656480164e-09	-9.578915477762664e-12	-3.547865343827929e-10	7.826115177227169e-12	4.189911376128161e-10	1.047197551198489	1.155773883423966e-11	3.362621800726385e-11	9.421300819258993e-10	8.350747219014251e-11	3.875032620188391e-09	-3.641640607702521e-11	-2.545163826901071e-09	-1.742064205892837e-13	1.08999191575677e-10	1.625545985087489e-11	2.419068229489807e-10	1.047197551205706	2.960776584157152e-10	3.209126046223336e-11	1.277605953013707e-09
0.06	-0.06685470619354017	-8.4306320490298e-09	0.09939340558320908	6.341075116271217e-09	0.08039589661264619	-1.531798946886438e-09	-0.01677138756302002	4.983313406967793e-10	0.8768314550995971	-5.898777808744945e-10	0.1974736191611202	-6.749120412885454e-10	0.5864537957225681	6.885709513800511e-09	-0.1700298299585321	4.494426831975765e-09	-0.1731210397652859	2.031929666749356e-09	0.2080135338463001	0.1355219233366061	0.01356633806662287	0.06450277141863378	-0.01092264156962678	0.04552447181491396	0.05053667811456487	0.02183623024360017	-0.006198400027510089	-0.06205935840381488	0.004686494482400466	-0.009626410817496383	0.3092798345411227	2.513365528808347e-09	0.01753926933201182	-0.0636724899567592	0.0257850826897493	-0.009253278109164586	0.003428915108679332	0.007438228397960314	0.0006954377533849391	0.04706093830152249	-0.001291978773358387	-0.008462345352167437	0.03576679207614752	4.942343580098039e-09	-0.2394874561442511	-1.958827368455578e-09	2.0307254700556e-11	1.720470996959692e-09	-0.171768157214702	7.088667537889048e-09	-0.1160204334351157	-2.128673398089741e-09	-0.01179897254595614	8.174693085108355e-09	0.001136855177918637	2.626184385428869e-09	0.04435000026910037	7.279468608644823e-09	-0.4187119999052523	3.197124210506978e-09	0.2010786043970292	4.085344608083037e-09	0.3128508063410887	1.292457266114751e-09	0.01111542373495111	-3.123381186148102e-09	-2.270818613111733e-11	-1.357413182259145e-10	-0.1671026861455296	-1.85632618424555e-10	-0.04597478777643673	6.340942979211972e-10	-0.0586203304438242	1.280790427641102e-09	-3.501665923426459e-11	-1.147820157672635e-09	-3.101882841942487e-11	-1.214067479587319e-09	-2.801461931215013e-11	-9.006207184189005e-10	2.051271899354454e-10	7.974112056448062e-09	-5.214459050884929e-11	-1.920911200499271e-09	-1.375447221287102e-11	-4.466371587304263e-10	1.214986233027831e-11	3.859043330761362e-10	1.04719755119904	7.909638059685413e-11	4.776083562159321e-11	1.637343929560173e-09	1.280143757563191e-10	4.619024806769087e-09	-6.271201499293805e-11	-2.57914024820099e-09	3.106690195679432e-13	-3.563388687332443e-12	2.097071121293084e-11	5.675650921585614e-10	1.047197551209379	3.847820501272588e-10	4.738129382909053e-11	1.564655667375107e-09
0.07000000000000001	-0.06685470629758086	-3.24088173060281e-09	0.09939340564030329	1.633113471891839e-09	0.08039589659022042	-7.867020262102313e-12	-0.01677138755824406	1.22642720846038e-09	0.8768314550975741	-2.700659297355535e-10	0.1974736191377951	-3.182974103130476e-09	0.586453795817978	1.072139272165377e-08	-0.170029829923927	5.031915549660672e-09	-0.1731210397887348	-4.844628788179329e-09	0.2096460480883078	0.2271648285511363	0.01410913112944211	0.05602797233776049	-0.01083495252978527	-0.009772487234732926	0.05055120756436012	0.02600153356445261	-0.006228212787212661	-0.1102148587821832	0.004548432371094817	0.006107290462311872	0.3092798345486389	-7.332295094381867e-11	0.01714085836649451	-0.08359164073379456	0.02556632996012001	0.01017368548714723	0.003381774538246054	0.003869535532704466	0.0005353258580289131	-0.0003199209758480517	-0.001277087425258706	-0.00949723640315402	0.03576679206488447	1.041844916479004e-09	-0.2394874561131047	8.898523008659072e-09	3.92563863960673e-11	1.065788260808748e-08	-0.171768157155965	1.436562153644301e-08	-0.1160204334450937	1.480837682114408e-09	-0.01179897248273702	1.004377393861862e-08	0.001136855196584622	7.009710562435234e-09	0.04435000035585602	-7.174377859699942e-09	-0.4187119998962041	3.165179611633307e-09	0.2010786044278969	-1.096879465944132e-09	0.3128508063580279	7.516345044407554e-10	0.01111542370444893	-4.253979191628674e-09	-1.730120813501761e-11	5.521373089977968e-10	-0.1671026862374131	-1.53949414463771e-08	-0.04597478776564855	-7.095645732757952e-09	-0.05862033044487595	-1.267490117042349e-09	-4.809357459321651e-11	-1.508012305393499e-09	-4.068761250112557e-11	-2.69537893990489e-09	-2.992487682241543e-11	6.432374002837223e-11	2.616306531574957e-10	5.69798600955714e-09	-6.913553394667996e-11	-2.559881439584305e-09	-2.381455074427825e-11	-1.231733386442954e-09	2.167779806568248e-11	9.282416396671909e-10	1.047197551199091	-1.122593218082633e-10	5.653106398353777e-11	8.22943184757033e-10	2.068320294730561e-10	7.785921676875692e-09	-9.795157927989943e-11	-1.333127994857024e-10	-7.243649725076357e-12	-2.370164641649033e-09	2.633609455134967e-11	3.564733205988382e-09	1.047197551208705	8.683795489420749e-11	7.013087175665731e-11	2.639681136070725e-09
0.08	-0.06685470628581017	1.531685516269893e-10	0.09939340562335422	-1.797707084126703e-09	0.0803958966080691	1.558778733266716e-09	-0.01677138754332134	1.400507813484928e-09	0.8768314550874219	-1.059937257147457e-09	0.1974736191083122	-3.228537287630583e-09	0.5864537959367965	1.290623152377354e-08	-0.170029829847021	7.720071620076506e-09	-0.1731210398254163	-4.24761932869738e-09	0.2107708308452427	0.3484371583680045	0.01454436979216931	0.0813612424801818	-0.01069524425285048	-0.04273229055002369	0.05069951517048003	0.002187576155079534	-0.005952918031665881	0.04695835039815179	0.00463144163787392	-0.014797466388398	0.3092798345538252	3.129459155463061e-10	0.01644643665282092	-0.06014819991852075	0.02534905557793728	-0.01453061643250787	0.00339075491259983	-0.00377165020567199	0.0006787526690330399	-0.009185796568479005	-0.001324494495250437	-0.0002113742083811911	0.03576679208310739	-5.213647531900217e-11	-0.2394874560295513	8.820931095551976e-09	1.92531867053833e-10	1.49066567108753e-08	-0.1717681569469279	2.056729320447488e-08	-0.1160204334138731	3.353947344193347e-09	-0.01179897234328814	1.363167359212442e-08	0.001136855296379001	9.39257875027817e-09	0.04435000018739191	-1.562941609303215e-08	-0.418711999826692	6.721275217022854e-09	0.201078604398124	-2.790274126130316e-09	0.3128508063753103	2.222890276493001e-09	0.0111154236520071	-5.222368147598009e-09	9.511074750425644e-12	3.328390896779617e-09	-0.1671026863817276	-1.557648469553923e-08	-0.04597478788174029	-1.095792005134331e-08	-0.05862033045836424	-1.506672558531242e-09	-6.701111374648321e-11	-2.004565492301772e-09	-7.939519670554271e-11	-3.730275244940873e-09	-3.113670452055635e-11	8.672229885278329e-12	3.171113776383565e-10	4.862753032503507e-09	-9.988092247292365e-11	-3.039181913353515e-09	-3.365191542893285e-11	-1.028864992581748e-09	2.314793952386492e-11	1.436272202611802e-10	1.047197551197919	-1.139852738330243e-10	7.054731548338508e-11	1.262484347498637e-09	2.624671504238894e-10	6.078758203757092e-09	-5.323004308808937e-11	4.672290295855874e-09	-3.513666228204384e-11	-2.811784205263487e-09	8.346030986713267e-11	5.656547578441486e-09	1.047197551214279	5.027253612865764e-10	9.746999693344884e-11	2.863095019898997e-09
0.09	-0.06685470630896588	-2.77041468902598e-09	0.09939340561299231	-1.152069077616624e-09	0.08039589662294393	1.355305853949782e-09	-0.01677138753059775	1.249404303320702e-09	0.8768314550775816	-9.76775364933087e-10	0.1974736190755758	-3.509405334828576e-09	0.5864537960775617	1.473207183577932e-08	-0.1700298297731963	7.250749948245257e-09	-0.1731210398655442	-4.510869415211868e-09	0.2121228505972494	0.1071393937710084	0.01492243997986358	0.03037255932391661	-0.0106979141627136	-0.002405942713928335	0.05054707288799971	-0.04441577077122658	-0.006323609194746053	0.1420365973943367	0.004586951919549099	0.02825229337880871	0.3092798345594366	4.268926113122809e-10	0.01574580139243655	-0.06426075348498918	0.02520877944266963	-0.03028427557839102	0.003403255428899272	-0.006295370557762776	0.0005737673732535089	-0.009437987004994933	-0.001353976400608446	-0.001506890376052761	0.03576679206530448	-2.912383830073146e-09	-0.2394874559496496	8.596933844833257e-09	3.201689850893547e-10	1.244836843837574e-08	-0.1717681567514106	1.93732417173823e-08	-0.1160204333860423	2.931629550789765e-09	-0.01179897222518135	1.145218240096916e-08	0.001136855388189039	8.90330497114793e-09	0.04435000005092679	-1.318991499186113e-08	-0.4187119997733235	4.936793489378498e-09	0.201078604372767	-2.626715809303344e-09	0.3128508063952067	2.15098990408705e-09	0.0111154236010035	-5.069768452701317e-09	4.694089903774283e-11	3.97043587684602e-09	-0.1671026865257508	-1.559776869842814e-08	-0.04597478798281896	-9.986667508579526e-09	-0.05862033047662548	-2.058040376187276e-09	-8.941165437523591e-11	-2.306019671227828e-09	-1.150147086746003e-10	-3.494647157299123e-09	-3.238920256489434e-11	-1.64454595707179e-11	3.615881235555905e-10	4.026869532943339e-09	-1.295011567230187e-10	-2.92282984232354e-09	-4.372588241823167e-11	-1.063858872362969e-09	2.635730289358377e-11	3.894412568287366e-10	1.047197551196763	-1.176447847430999e-10	7.981195308398873e-11	8.394812918206245e-10	3.224170758801721e-10	6.444635342198088e-09	-1.435618667636554e-11	3.848284396428468e-09	-6.09710736165919e-11	-2.640086099844991e-09	1.345548634557893e-10	5.095078812504361e-09	1.047197551218913	4.069750409339616e-10	1.250910773071404e-10	2.885803542293064e-09
0.1	-0.06685470625099441	5.838511481202373e-09	0.09939340557355379	-3.834897569217629e-09	0.08039589665856255	3.67469409651993e-09	-0.01677138751029845	2.100756952447364e-09	0.8768314550674695	-1.205024344770795e-09	0.1974736190432903	-2.409845596217131e-09	0.5864537962024777	1.167173384407631e-08	-0.1700298296915329	8.564489564272275e-09	-0.1731210399104445	-1.461315933117804e-09	0.213685939149668	0.04695219636229619	0.01536132346184544	0.02341558410689636	-0.01056792166741198	0.04193814444947727	0.05049856866932106	0.04686461669795294	-0.006239461354056734	0.02986226639707041	0.004611933428122834	-0.02060543986717625	0.3092798345661888	2.179471547315481e-09	0.01497738305289149	-0.04295090808898191	0.02505650944543724	-0.03791786430520728	0.003430200681837203	-0.005932238789560087	0.0006824505235861806	-0.0273020979186322	-0.001405064981620206	0.004775238638534001	0.03576679211006514	6.523425384397285e-09	-0.239487455845612	9.663572815257705e-09	5.119730779341557e-10	1.97135619535281e-08	-0.1717681564863346	2.595717223520959e-08	-0.1160204333464098	3.455876621256334e-09	-0.01179897207286565	1.460515627219261e-08	0.001136855524790285	1.427308697804443e-08	0.04434999978497711	-3.078601219142267e-08	-0.4187119997037227	8.29825111057991e-09	0.201078604313817	-6.627481935639868e-09	0.3128508063909886	2.04582945845188e-09	0.01111542354023404	-5.384554577443543e-09	6.335443519755129e-11	3.936533560706647e-09	-0.1671026866947289	-1.162527952951095e-08	-0.04597478815702477	-1.852591334636272e-08	-0.05862033050159108	-1.711783588318068e-09	-1.105223029261154e-10	-2.181727366164226e-09	-1.650574273118114e-10	-5.249930850400416e-09	-3.423891038790921e-11	-6.016331416541146e-10	4.266390481839309e-10	5.830567278486473e-09	-1.678164016024828e-10	-2.84267077583899e-09	-5.495160380956672e-11	-6.924502422556824e-10	3.172165668741765e-11	-4.933964067485065e-10	1.047197551194693	-1.986398910507418e-10	9.208509016912796e-11	2.317514522212004e-09	3.709407088210404e-10	3.068593065604821e-09	4.721151647183073e-11	5.345398581654945e-09	-9.784869425586639e-11	-2.816054543607927e-09	2.117139947634967e-10	6.230415582663521e-09	1.04719755122583	8.746016814955223e-10	1.530553458843509e-10	2.856134028508858e-09
0.11	-0.06685470612976972	1.353783103840266e-08	0.09939340550671165	-8.188880505265625e-09	0.0803958967114629	6.062167652535973e-09	-0.01677138748390153	2.740879063618364e-09	0.8768314550533072	-2.160074161883484e-09	0.1974736190193268	-1.368197627003044e-09	0.5864537963152773	1.106223924638242e-08	-0.1700298295896667	1.201968419551889e-08	-0.1731210399266026	2.429965399310066e-09	0.2151258767677534	0.05868952308961336	0.01566534041548304	0.0148904569355173	-0.01057770197417966	-0.01767559700530932	0.05063781842580145	0.01376124846744187	-0.006356158149242991	0.01943937569054447	0.004613240082984056	0.01274143050225029	0.3092798345884291	4.153698877284521e-09	0.01426483572352879	-0.07007294497974383	0.02493154998629195	-0.02396955512869691	0.003431445744666669	0.002419371771977125	0.0006276382302770897	0.01710107531779595	-0.001447928560984384	-0.00524592107235306	0.03576679221880065	1.18837205350214e-08	-0.239487455719168	1.073255345762561e-08	7.783651990969423e-10	2.882425567044523e-08	-0.1717681561647856	3.421448603248463e-08	-0.1160204332955737	5.335519239373657e-09	-0.0117989718878904	1.96114610041772e-08	0.001136855699794076	1.94357823214562e-08	0.04434999935636658	-5.055728301050021e-08	-0.418711999589896	1.498504992153475e-08	0.2010786042233622	-1.057384379986471e-08	0.312850806409906	5.988458871069581e-09	0.01111542347958976	-5.809116719416893e-09	1.0255929378037e-10	8.391592052289072e-09	-0.1671026868254546	-6.594457135427791e-09	-0.04597478839932044	-2.683538324613831e-08	-0.05862033051886778	-7.911457792008704e-10	-1.318701549728438e-10	-2.503368653820156e-09	-2.298775384023123e-10	-7.216618868458366e-09	-3.970511875674555e-11	-1.14461587749572e-09	4.907598153621382e-10	5.263458034156257e-09	-2.018968374564886e-10	-2.366923342351875e-09	-6.081421480044927e-11	-1.591808122490097e-11	2.208726911499408e-11	-2.626815958920012e-09	1.047197551192282	-2.306521674532731e-10	1.19766314494729e-10	4.404583376959054e-09	3.91655983483642e-10	-1.090789213291266e-09	1.307155115642178e-10	9.750602879773933e-09	-1.341622220259786e-10	-2.720373565006407e-09	2.947411461504966e-10	7.450200709541097e-09	1.047197551237141	1.579053814328946e-09	1.825132564736282e-10	3.158212987167204e-09
0.12	-0.06685470593702703	1.905225674491817e-08	0.09939340541030395	-7.214514023042141e-09	0.08039589678761898	9.18405743844641e-09	-0.01677138745171524	3.248488667390237e-09	0.8768314550304145	-1.727700072897784e-09	0.1974736190116121	-4.835894006266604e-11	0.5864537964139203	8.7415231900739e-09	-0.1700298294577642	1.271101861044109e-08	-0.1731210398910555	4.134627330297858e-09	0.2166959594403027	0.0561921352522326	0.01600180974559722	0.01527350713551296	-0.01059650030918996	0.03391641725320731	0.05048980915925575	-0.08770545899221761	-0.00622028124773177	-0.05343208677328044	0.004584046837412902	0.001646584396511806	0.3092798346371942	4.851833902911653e-09	0.01367066111026463	-0.06198866303396727	0.02478010900527717	-0.007615833265837624	0.003426556303503392	0.003625482736743904	0.0006199667034973512	-0.002758545778937574	-0.0014736324440043	-0.0044456571218948	0.03576679241080363	2.439050742847492e-08	-0.2394874555983048	6.594109023262091e-09	1.121878389574849e-09	3.1075392130429e-08	-0.1717681557671448	4.191750860181426e-08	-0.1160204332365635	3.719084833106624e-09	-0.01179897165564812	2.299254074738614e-08	0.001136855920643846	2.428397521647732e-08	0.04434999875389409	-5.655871980010119e-08	-0.418711999414262	1.453025525234271e-08	0.2010786041060017	-9.999095195541068e-09	0.3128508064553761	-3.575019132497627e-09	0.01111542341583709	-7.662105842574051e-09	1.700942575206031e-10	8.967589766385801e-11	-0.1671026868700985	5.965334165072174e-10	-0.04597478871610637	-3.178752033402624e-08	-0.05862033052241928	-1.053255964013397e-09	-1.552542587254242e-10	-2.249330090937238e-09	-3.121337986125304e-10	-8.425304517931911e-09	-5.284758298577716e-11	-1.959806796204355e-09	5.636081415585066e-10	1.210945685518518e-08	-2.34205033831466e-10	-5.514897939054642e-09	-5.806480030874516e-11	2.193049066043918e-10	-6.628455122071504e-12	-9.322123460114601e-10	1.047197551190003	-2.037621261794175e-10	1.670168628571642e-10	2.763433709577109e-09	3.646434318686792e-10	-4.427891365363777e-09	2.520080848825577e-10	1.18884122843848e-08	-1.665145444994768e-10	-3.869464871296641e-09	3.880141810124477e-10	1.137667796857784e-08	1.047197551256124	2.076196361790032e-09	2.10473549403547e-10	1.199590823275541e-09
0.13	-0.06685470571723187	2.44117603633438e-08	0.09939340531532311	-1.108170912099458e-08	0.08039589686589936	8.060531492426015e-09	-0.01677138741776608	3.854703521006801e-09	0.8768314550113027	-1.580688872378996e-09	0.1974736190075156	-1.519803805606783e-09	0.5864537964835888	5.196167372987099e-09	-0.1700298293208937	1.359740467585173e-08	-0.1731210398513848	1.174128995112123e-09	0.2178288671945049	0.1533946569343974	0.01622828982829239	0.03078945370786046	-0.01046554550687205	-0.002645380332043042	0.05061008205387724	0.1115803080179558	-0.006099147625109985	-0.06723075704225083	0.00463860073898844	-0.015983627967084	0.3092798346805328	2.862101334856534e-09	0.01312581670964943	-0.05883555250472161	0.02463609694634684	-0.007083668316179901	0.003411509035033408	0.002705643888282619	0.0006183548764031784	0.01635262311865252	-0.001510449951274879	-0.006226192031554285	0.03576679264790267	2.344798517512608e-08	-0.2394874554795584	1.448444108603447e-08	1.477986244027459e-09	3.361116702414736e-08	-0.1717681553704538	4.044869601858927e-08	-0.1160204331771292	7.042107026599778e-09	-0.01179897140327486	2.633891837346884e-08	0.001136856141672662	2.183554510282638e-08	0.04434999812845794	-6.523169744809049e-08	-0.418711999232561	1.320246791583756e-08	0.2010786039926996	-1.249534168740868e-08	0.3128508064852066	2.937613151900992e-09	0.01111542335310837	-6.055268850073512e-09	2.122556614460482e-10	2.375425842228093e-09	-0.1671026869107307	-1.321029916376602e-08	-0.04597478903496722	-3.230071792539198e-08	-0.05862033051980171	-6.023244278810701e-11	-1.720280013405824e-10	-1.53030349044842e-09	-3.957580585162957e-10	-8.669602854372332e-09	-6.464976215382281e-11	-2.419710721879928e-10	6.515016749077079e-10	1.206481715470681e-08	-2.697624680928003e-10	-3.376556717654712e-09	-5.358377469004042e-11	7.299403658143588e-10	-3.563918344133488e-11	-2.709592846302086e-09	1.047197551188038	-2.866510235955718e-10	2.147398885313042e-10	4.923132417273782e-09	3.370353787588497e-10	6.964920067186405e-10	3.712452991763362e-10	1.113212373889635e-08	-2.017206057882436e-10	-4.649387291370837e-09	4.862548955320554e-10	1.104940664045776e-08	1.047197551275322	1.659395479202679e-09	2.343244976712293e-10	2.689041972129239e-09
0.14	-0.06685470544005273	1.553042165902559e-08	0.09939340521054407	-6.917260804831882e-09	0.080395896950039	6.971660494328099e-09	-0.01677138738199036	3.214578420592722e-09	0.8768314549945072	-1.677068949539809e-09	0.1974736190030504	-8.09401732485313e-10	0.5864537965330631	6.670338043938036e-09	-0.1700298291842833	1.165943005660196e-08	-0.1731210398334004	4.552650939485871e-09	0.2191659081692814	0.211139913375714	0.0164490125738472	0.02460558341480478	-0.01053217610040011	-0.04877207581238674	0.05069835209446384	-0.09384000369723512	-0.006127776312770004	-0.01039528815051911	0.004577530998756355	0.01114417611677203	0.309279834718899	1.532294870222973e-10	0.01274279392727325	-0.04873041060535341	0.02450155621320275	0.003964519550790626	0.003388520179779822	0.0005045139383899377	0.000571024611236354	2.026975460860285e-05	-0.001523491549744602	-0.005594602307260959	0.03576679296703584	8.532324546083722e-09	-0.2394874553659007	1.852634821223881e-08	1.867380671387658e-09	4.46429808629619e-08	-0.1717681549614953	3.871701189595943e-08	-0.1160204330948992	-4.45591731197533e-10	-0.01179897111234847	2.238187993958345e-08	0.00113685635879874	1.980635430100416e-08	0.04434999743546323	-3.363593381744881e-08	-0.4187119990591915	2.583638635639563e-08	0.2010786038359234	7.063951611591409e-09	0.3128508064982577	-7.701193361700553e-10	0.01111542328358618	-4.846401569185305e-09	2.19369417852136e-10	6.42150911985568e-09	-0.1671026870082705	7.209812507196428e-09	-0.04597478938001508	-2.103350716014039e-08	-0.05862033053777334	8.996799950438594e-09	-1.783499543685326e-10	-2.266264736760812e-09	-4.812942519666028e-10	-7.335359274281762e-09	-6.482598673493989e-11	-3.687327330248945e-09	7.367940672728717e-10	1.470677584634838e-08	-2.931126697218029e-10	-1.118037868589613e-08	-5.149699084956669e-11	-2.289023308937501e-10	-5.800378766437929e-11	-2.831343351872685e-09	1.047197551185385	3.947679731367002e-10	2.582165157916409e-10	3.768605362678334e-09	3.489139611161841e-10	-1.50412757773109e-08	5.575804276348691e-10	-7.439118440268526e-09	-2.416714037851536e-10	-5.362516283072197e-09	6.261800593609621e-10	-1.482383126452739e-10	1.047197551292541	2.135226600227122e-09	2.579626625224167e-10	1.445967151128848e-09
0.15	-0.06685470525812677	1.770934171702953e-08	0.09939340511574853	-8.060037116619368e-09	0.08039589701975168	6.22962527155455e-09	-0.01677138734729552	3.057450571477285e-09	0.8768314549834028	-9.027676465645776e-10	0.1974736190017182	1.680767716673757e-09	0.586453796593406	6.822197499095882e-09	-0.1700298290702694	1.067526168812577e-08	-0.1731210397611057	1.091850791617365e-08	0.2202653751902721	0.1280615179376691	0.01663414555284953	0.0323850536433471	-0.01045852415868146	0.07224447276559416	0.05047877496851705	0.0007262251038282017	-0.006010493832172106	0.01920493142314667	0.004659605792891769	-0.001945538073732533	0.3092798347207796	2.782507617115846e-10	0.01238840057471068	-0.02395620722672367	0.02439635678928649	-0.01027256343033219	0.003375772526555548	-0.003490108683291405	0.0006185643200397706	-0.001483060024739798	-0.001556455638864678	-0.0009956039727639296	0.03576679296505018	-7.403717475436811e-09	-0.2394874551795172	1.801641903861732e-08	2.219639994912797e-09	3.949526195276083e-08	-0.1717681545731555	3.849214009209571e-08	-0.1160204331100549	-5.359869356654988e-09	-0.01179897095982345	1.15188168962942e-08	0.001136856554788803	1.864260658172462e-08	0.04434999702303689	-3.294493181743607e-08	-0.418711998828826	3.335129720623433e-08	0.2010786038991994	1.371542943531793e-08	0.3128508064733483	-7.157908910839599e-09	0.01111542324736144	-3.15859552897191e-09	2.760587091793687e-10	5.466753222051393e-09	-0.1671026869242785	2.328093807062631e-08	-0.04597478965703292	-2.872347047470613e-08	-0.05862033046428355	9.909057820524631e-09	-1.993683864538286e-10	-1.920123888737582e-09	-5.581389831139537e-10	-7.028374561908791e-09	-1.054359716658844e-10	-6.027728683020363e-09	8.78251421664627e-10	1.187869260898494e-08	-4.011810804960934e-10	-1.386754389057881e-08	-5.456265978578986e-11	-1.281186752980676e-09	-7.665126751869738e-11	-9.572805972605604e-10	1.047197551189516	8.038247338316826e-10	2.884938424528959e-10	1.594690900772806e-09	1.993833573384363e-10	-2.29150301714802e-08	4.207602605732302e-10	-2.189987217686369e-08	-2.853790857512652e-10	-3.353133692697011e-09	6.101241738812057e-10	-6.469183152474831e-09	1.047197551314541	2.521502447799551e-09	2.716157466088989e-10	3.070338106409397e-10
0.16	-0.06685470509679486	2.657358800732298e-08	0.0993934049585896	-1.467781210351725e-08	0.08039589710710075	1.043472608426394e-08	-0.01677138729603865	5.285387933690106e-09	0.8768314549735253	-1.272223864133877e-09	0.1974736189615302	-4.01062901126679e-09	0.5864537966373989	3.212161907056002e-11	-0.1700298289578975	1.339898178484046e-08	-0.173121039727223	1.141719217691686e-10	0.2214035582233674	0.151581303085673	0.01681168820706614	0.01547739335841834	-0.0103981085990065	-0.0394338057615511	0.05068712722517603	0.1166288651824278	-0.006189207557982399	0.0111448586359274	0.004590299271383681	-0.009192259821961882	0.3092798346931072	-2.038661141307199e-09	0.01218432967663299	-0.01193505375063628	0.02430556468628439	-0.014475384258417	0.003351770483637977	-0.006463695728044069	0.0005884398785630733	-0.006767617384359564	-0.001568763289629619	-5.804164037254011e-05	0.03576679275986418	5.87598475273796e-09	-0.2394874549422828	1.780594366345411e-08	2.375377246668146e-09	2.771596935407203e-08	-0.171768154156982	4.23727558658101e-08	-0.1160204331228945	6.2115997174019e-09	-0.01179897085959755	2.377504179602028e-08	0.001136856747515696	1.924043225160659e-08	0.04434999655795741	-6.814583988788482e-08	-0.4187119988455197	-4.91050901062781e-09	0.2010786039480044	-9.548730299906405e-09	0.31285080651299	4.768329432884927e-09	0.01111542323644635	-2.878228612411779e-09	3.825929788726388e-10	9.736469751573586e-09	-0.1671026870708469	-2.828094578111167e-08	-0.04597478993540822	-3.275008987965365e-08	-0.05862033038385166	2.22783703795564e-09	-2.402492176786981e-10	-9.514054724782075e-10	-6.507794291755667e-10	-9.982648038177313e-09	-1.29689771509676e-10	1.027907834057855e-10	1.1594112926206e-09	2.196517342890826e-08	-4.971196377522149e-10	-4.443687330994139e-09	-3.597692202435469e-11	1.585420739062264e-09	-1.024757812266095e-10	-2.404303377948443e-09	1.04719755119117	-2.795720858442428e-10	3.354140046151394e-10	4.998955537107217e-09	1.14206854889141e-10	-8.780154918290568e-10	1.467222546724034e-10	-7.454475658978296e-09	-3.560293534498994e-10	-7.345542802185018e-09	5.695849528355829e-10	6.584921082206654e-09	1.047197551331611	1.372785704444382e-09	2.99559149981132e-10	3.573911501421692e-09
0.17	-0.06685470484825497	1.989674554555054e-08	0.09939340479001578	-1.822285809012774e-08	0.08039589721271143	1.005277588103906e-08	-0.01677138723795128	5.650062520901336e-09	0.8768314549653851	-3.98772789262379e-10	0.197473618914572	-3.945530761461538e-09	0.586453796630569	1.344271642322661e-09	-0.1700298288307249	1.057894246094865e-08	-0.1731210397116589	5.939005990221148e-09	0.2227580424064247	0.115301904346684	0.01699655145810973	0.01432046297905137	-0.01050764228175672	-0.02248220831899197	0.05064558921881086	-0.156012249558583	-0.0061753499799704	0.05856832768886022	0.004618815835708561	0.0201003419027585	0.3092798346550762	-4.803476149387534e-09	0.01203179296259369	-0.003005079549252396	0.02423663278863321	-0.008905039079673138	0.003334355387864936	-0.0028323853292181	0.0006297258608980801	-0.003941663641195346	-0.001589543757016602	0.0006600292293865084	0.03576679266116241	-2.656903457163818e-08	-0.2394874547305872	2.413475692086458e-08	2.549492468620499e-09	8.267367729714867e-09	-0.1717681537316112	4.267998135463693e-08	-0.1160204330868523	-1.507434527530875e-09	-0.01179897069261669	6.262196353475181e-09	0.001136856930071307	1.701714816745245e-08	0.0443499958966914	-5.408877348865783e-08	-0.4187119989572817	-8.723921446617622e-09	0.2010786038993856	4.370639387428181e-09	0.3128508065590506	1.784266026383033e-09	0.01111542322566112	-2.456829221296653e-11	5.023129937057628e-10	1.205346328031875e-08	-0.1671026873673792	-1.675819510053495e-08	-0.04597479027504323	-3.291858566257304e-08	-0.05862033034531035	6.71294847094527e-09	-2.583057749976423e-10	-3.261663627875501e-09	-7.542706438295728e-10	-9.884503986842249e-09	-1.358881738865053e-10	-2.590923363987629e-09	1.425859723252372e-09	2.918175269232095e-08	-5.582183089816111e-10	-9.742391522428497e-09	-1.615773160405281e-11	1.665879995987178e-09	-1.228834726051775e-10	-1.270046823630401e-09	1.047197551189486	2.571372187018963e-10	3.816913577020971e-10	3.159576787997566e-09	8.409635597014739e-11	-9.053427295688768e-09	-7.050396126039755e-11	-3.462294956757205e-08	-4.341007575286061e-10	-7.263000445047262e-09	5.847892174678372e-10	-5.088820927897613e-09	1.047197551345805	1.818745579144537e-09	3.357324874599266e-10	2.667396928495981e-09
0.18	-0.06685470459532432	2.533802879730683e-08	0.09939340459631288	-1.889808766792927e-08	0.08039589731822869	1.048487606749509e-08	-0.01677138717759954	6.062504778031484e-09	0.8768314549619471	-2.861668389534865e-10	0.1974736188757669	-3.830240245799329e-09	0.5864537966294033	2.342413953053699e-10	-0.170029828713779	1.182066424130896e-08	-0.1731210396629779	4.731742623179197e-09	0.2238767864784299	0.01898798284297555	0.01716567916603064	0.01278091943758249	-0.01039538286922978	0.08702741672773349	0.05041159573411983	0.09877521395527329	-0.00617692764396469	-0.01648372732269375	0.004643712028436038	-0.0100684344527469	0.3092798346153511	-3.662654024007175e-09	0.01198170170802523	0.001991111169059874	0.02418214770945639	-0.01527348339170368	0.003313642926000923	-0.002925467889479431	0.000617644847334467	0.001921517099844051	-0.001598800010258955	-2.39291727979901e-06	0.03576679241723003	-2.376398141929897e-08	-0.2394874545144631	2.032828106938097e-08	2.640611114696099e-09	8.537250950187691e-09	-0.1717681532964973	4.416964581978225e-08	-0.1160204330837896	5.585405274697063e-10	-0.01179897061226006	8.642484525632297e-09	0.001136857105855691	1.768018275522601e-08	0.04434999523493658	-6.744716835480731e-08	-0.41871199907341	-1.123072237765621e-08	0.2010786038881164	-1.463079635699356e-09	0.3128508065786291	1.530768089901275e-09	0.01111542323006845	2.352638787994867e-10	6.205377109262577e-10	1.139570964787517e-08	-0.1671026875998673	-2.309353695198213e-08	-0.04597479066383506	-3.930850768603893e-08	-0.05862033030073863	4.259118096734958e-09	-2.819797409838391e-10	-2.469025869061769e-09	-8.587451012611465e-10	-1.036779473887192e-08	-1.529985507600808e-10	-1.693597459473889e-09	1.709043662138819e-09	2.794423234657687e-08	-6.328642666961915e-10	-7.449374793258315e-09	2.143674440859422e-12	1.794829652984586e-09	-1.330140602767271e-10	-1.032223992219945e-09	1.047197551190244	1.178764796816562e-10	4.175050515296109e-10	3.63872367307358e-09	2.192804078462242e-11	-5.873104877036062e-09	-3.963828350292076e-10	-3.190732535090234e-08	-5.041728290665781e-10	-6.921223428735421e-09	5.572124632621097e-10	-2.529883997635467e-09	1.047197551361595	1.535405392722296e-09	3.663839153384839e-10	2.907105708053502e-09
0.19	-0.06685470445546071	-5.174340949394921e-09	0.09939340438692398	-1.346241605829246e-08	0.08039589739925801	2.000580851882055e-09	-0.01677138711364155	6.253664593120804e-09	0.8768314549638702	2.361748469919017e-09	0.1974736188108436	-9.920729533592271e-09	0.5864537967485702	2.328435696725157e-08	-0.1700298285798162	1.682944203369961e-08	-0.1731210396203087	2.818034922473437e-09	0.225058297310178	0.1575572482042456	0.01734444402450381	0.01387896760725069	-0.01039114229484623	-0.05123357415174778	0.05075940613356128	0.067029566143187	-0.006207948290511059	-0.02666503261336811	0.004605316638904807	-0.01934789781385135	0.3092798345954468	4.295142491294049e-10	0.01201941592100698	0.00781619849759093	0.02410226192457251	-0.006978891987746014	0.003288274072662185	-0.002404175772659832	0.0006216975882983313	-0.002317321518184686	-0.001598476985229309	0.0006316196466578038	0.03576679212305603	-4.104459478115335e-08	-0.2394874544643967	-2.736594663766076e-08	2.682016222105026e-09	-1.89371180161206e-08	-0.1717681527647154	5.89285169778356e-08	-0.1160204330610203	4.284945466757624e-09	-0.01179897043113733	2.316974771715549e-08	0.001136857295362734	2.446047985454558e-08	0.0443499944894483	-8.021360655329392e-08	-0.4187119992159768	-2.165794157299028e-08	0.2010786038716476	3.296807064934889e-09	0.3128508065698425	-3.146621781702656e-10	0.01111542323039701	-3.058291062850185e-09	6.705758921600871e-10	-3.09269691331695e-09	-0.1671026878899436	-3.667562057344154e-08	-0.04597479108727898	-3.323121095292931e-08	-0.0586203302400443	8.967870152344655e-09	-3.526714321123122e-10	-1.252828805509748e-08	-9.49846397085217e-10	-5.897039448048296e-09	-1.73482780081422e-10	-2.449614451366263e-09	1.975836139239639e-09	2.630713780378006e-08	-7.347688752271717e-10	-1.404355577981827e-08	2.443468094734954e-11	2.929068448259446e-09	-1.576667503981822e-10	-4.878942862680458e-09	1.047197551194009	1.292259042794319e-09	4.528720477555675e-10	4.964081787566177e-09	3.196226430697062e-11	1.466415852771239e-08	-6.45398146407486e-10	-2.647256597284629e-08	-5.799787879377565e-10	-9.811976043640017e-09	5.48071872273929e-10	-3.029723359498075e-09	1.047197551371895	-1.284395595045299e-10	3.74355849175167e-10	-2.183450861310066e-09
0.2	-0.0668547041062927	6.445368907479949e-08	0.09939340417266666	-2.88162125960342e-08	0.08039589754777456	2.411173165707123e-08	-0.01677138704653493	6.887972272991203e-09	0.8768314549455768	-5.294449887221938e-09	0.197473618798248	5.119518951856329e-09	0.5864537967491821	-1.48276377121403e-08	-0.170029828484249	4.991121148369505e-09	-0.1731210395760955	5.978939885435263e-09	0.2262944450805269	0.1043254748458865	0.01748544664351369	0.01515020681061379	-0.0105496366125097	-0.008150143274230153	0.050597421602763	-0.1739792161478846	-0.006159939391574495	0.03250663123610781	0.004628490252199247	0.03100174727329942	0.3092798345491663	-9.348691564631551e-09	0.0120874886193135	0.002147988582549301	0.02405517970611082	0.001153105013752064	0.003271813519001262	0.001669286379138769	0.0006214174617314016	0.007370061819502604	-0.00160111136187873	-0.002133912535094387	0.03576679189258598	-1.231067959658668e-08	-0.2394874541268347	7.633710577246161e-08	2.771381224879706e-09	3.555695595489823e-08	-0.1717681522408447	4.947277779052958e-08	-0.1160204330591358	-2.251908563351343e-09	-0.01179897039950065	-1.04670983105592e-08	0.00113685744556598	8.831164440201776e-09	0.0443499938071452	-6.01717836101125e-08	-0.4187119992787022	5.59367623772845e-09	0.2010786038302532	-1.001624826773282e-08	0.3128508065343064	-6.623561114242055e-09	0.01111542323467271	3.161214188018299e-09	8.067602662144863e-10	2.526871322390822e-08	-0.1671026879995975	8.681556169481512e-09	-0.04597479157703885	-6.248072612672779e-08	-0.05862033022990092	-4.80465064288453e-09	-3.858821077828783e-10	2.708518976019173e-09	-1.072147839858508e-09	-1.694927262354071e-08	-1.908531774222515e-10	-1.286845605975788e-09	2.2707410272965e-09	3.011263488581528e-08	-8.012205316557435e-10	-1.518820039450201e-09	4.243405679880872e-11	1.007100883948821e-09	-1.602614352555969e-10	2.891896731041107e-09	1.047197551195367	-7.53781327699383e-10	4.876016126142647e-10	2.077085729063165e-09	-8.348916861958965e-11	-2.980069083026624e-08	-9.04146647642069e-10	-2.136765365658168e-08	-6.253657284217299e-10	-6.573431330563853e-10	5.396182293343786e-10	2.133527542757373e-09	1.047197551391428	3.403069120276902e-09	4.001271462629329e-10	5.68018921472069e-09
0.21	-0.06685470370315651	3.731135642910481e-08	0.09939340391071808	-3.48650060783086e-08	0.08039589770106544	1.323859071982686e-08	-0.01677138698347434	5.827308580657345e-09	0.876831454917771	-3.147002661886063e-09	0.1974736187885911	-3.350481301057869e-09	0.5864537967431818	3.121644427016544e-09	-0.170029828382387	1.254190006068147e-08	-0.1731210395192345	7.573927191504354e-09	0.2272800533733894	0.06847133761929998	0.017649506065752	0.01503582509131757	-0.01046211962457077	0.03399566071807788	0.05049125350597639	0.1057586807890282	-0.006117689718949865	-0.04315914642912461	0.004626190604152274	-0.01677660614846879	0.3092798344677549	-9.830102532245182e-09	0.01221146793485975	0.01366296728523942	0.02399592908752439	-0.006637848396316235	0.003258290466421703	-0.001325790046785478	0.000622959244551818	-0.0005576803195756208	-0.001595690432030996	0.0005701189598735976	0.03576679165966046	-2.186498855053339e-08	-0.2394874537429056	3.393475731024441e-08	3.122956818695048e-09	6.403933580304132e-08	-0.1717681517320531	4.746767274979165e-08	-0.1160204330478147	2.915169803868759e-09	-0.01179897035498955	1.669941885299534e-08	0.00113685760591134	1.645949979374397e-08	0.0443499931168958	-7.276964053628761e-08	-0.4187119993154752	-4.326836191330465e-09	0.2010786037652962	-9.617007248388625e-09	0.3128508064995905	-1.294723804812495e-09	0.01111542325578356	4.904672966615247e-09	9.506095308950703e-10	1.249513177271936e-08	-0.167102688120957	-2.490569059474092e-08	-0.04597479211164834	-5.695479447202042e-08	-0.05862033021862064	4.029823749272761e-09	-4.093854090745634e-10	-1.594631791067124e-09	-1.203013924190122e-09	-1.285157825252299e-08	-2.069490487349289e-10	-1.597968140756937e-09	2.526619761963321e-09	1.978152823195346e-08	-8.626692033617675e-10	-6.792434549590657e-09	5.758916647410333e-11	1.278232674538562e-09	-1.601536365937097e-10	-4.227335421641263e-10	1.047197551192479	-1.002721394230903e-09	5.089273637452574e-10	3.101933016821979e-10	-2.049557197765929e-10	-9.171787149263363e-09	-1.093495723991224e-09	-1.060964164839501e-08	-6.753849019821059e-10	-6.658793894399186e-09	5.641242121550028e-10	6.792773824349754e-09	1.047197551412537	2.090925821109108e-09	4.338833582138753e-10	4.093229022562042e-09
