Model Marker Errors from IK
version=1
nRows=316
nColumns=4
inDegrees=no
endheader
time	total_squared_error	marker_error_RMS	marker_error_max
      6.64000000	      0.00258923	      0.01199358	      0.02865586
      6.64400000	      0.00264910	      0.01213145	      0.02988123
      6.64800000	      0.00196956	      0.01046039	      0.02467619
      6.65200000	      0.00202777	      0.01061385	      0.02597428
      6.65600000	      0.00143091	      0.00891601	      0.01617585
      6.66000000	      0.00144206	      0.00895067	      0.01736233
      6.66400000	      0.00150527	      0.00914472	      0.01844769
      6.66800000	      0.00143953	      0.00894280	      0.01926485
      6.67200000	      0.00144497	      0.00895968	      0.02030496
      6.67600000	      0.00149706	      0.00911977	      0.02136816
      6.68000000	      0.00145811	      0.00900035	      0.01927795
      6.68400000	      0.00146580	      0.00902403	      0.02015271
      6.68800000	      0.00155001	      0.00927964	      0.02087712
      6.69200000	      0.00141875	      0.00887804	      0.01835940
      6.69600000	      0.00142075	      0.00888430	      0.01831104
      6.70000000	      0.00149228	      0.00910520	      0.01845622
      6.70400000	      0.00126620	      0.00838717	      0.01827238
      6.70800000	      0.00124717	      0.00832389	      0.01701961
      6.71200000	      0.00128101	      0.00843608	      0.01647880
      6.71600000	      0.00135915	      0.00868956	      0.01670532
      6.72000000	      0.00124065	      0.00830210	      0.01761307
      6.72400000	      0.00119684	      0.00815421	      0.01689952
      6.72800000	      0.00122520	      0.00825027	      0.01714824
      6.73200000	      0.00130568	      0.00851693	      0.01740156
      6.73600000	      0.00144628	      0.00896375	      0.01765606
      6.74000000	      0.00115423	      0.00800774	      0.01674628
      6.74400000	      0.00113935	      0.00795597	      0.01622695
      6.74800000	      0.00119649	      0.00815300	      0.01670253
      6.75200000	      0.00105806	      0.00766689	      0.01765789
      6.75600000	      0.00101778	      0.00751953	      0.01791949
      6.76000000	      0.00108155	      0.00775152	      0.01841297
      6.76400000	      0.00104584	      0.00762248	      0.01719385
      6.76800000	      0.00090383	      0.00708611	      0.01740533
      6.77200000	      0.00098776	      0.00740782	      0.01744159
      6.77600000	      0.00082871	      0.00678524	      0.01677587
      6.78000000	      0.00081815	      0.00674187	      0.01651684
      6.78400000	      0.00092168	      0.00715574	      0.01618783
      6.78800000	      0.00086081	      0.00691541	      0.01678213
      6.79200000	      0.00085647	      0.00689795	      0.01632679
      6.79600000	      0.00084106	      0.00683559	      0.01686714
      6.80000000	      0.00085926	      0.00690915	      0.01626363
      6.80400000	      0.00101733	      0.00751786	      0.01556953
      6.80800000	      0.00091903	      0.00714542	      0.01654607
      6.81200000	      0.00089922	      0.00706801	      0.01564156
      6.81600000	      0.00107389	      0.00772404	      0.01777499
      6.82000000	      0.00115789	      0.00802044	      0.01637519
      6.82400000	      0.00122740	      0.00825766	      0.01711121
      6.82800000	      0.00122973	      0.00826551	      0.01648969
      6.83200000	      0.00101252	      0.00750008	      0.01505662
      6.83600000	      0.00104987	      0.00763716	      0.01461920
      6.84000000	      0.00116653	      0.00805030	      0.01681668
      6.84400000	      0.00111410	      0.00786730	      0.01568222
      6.84800000	      0.00121313	      0.00820952	      0.01704079
      6.85200000	      0.00128354	      0.00844439	      0.01617868
      6.85600000	      0.00128444	      0.00844737	      0.01595596
      6.86000000	      0.00136996	      0.00872405	      0.01616268
      6.86400000	      0.00138032	      0.00875697	      0.01576071
      6.86800000	      0.00124934	      0.00833113	      0.01638408
      6.87200000	      0.00128287	      0.00844219	      0.01587430
      6.87600000	      0.00133834	      0.00862276	      0.01540674
      6.88000000	      0.00126434	      0.00838100	      0.01710239
      6.88400000	      0.00128391	      0.00844560	      0.01636907
      6.88800000	      0.00133909	      0.00862518	      0.01613858
      6.89200000	      0.00139257	      0.00879573	      0.01772042
      6.89600000	      0.00140465	      0.00883380	      0.01726379
      6.90000000	      0.00141497	      0.00886619	      0.01635802
      6.90400000	      0.00141341	      0.00886130	      0.01790393
      6.90800000	      0.00138986	      0.00878716	      0.01692966
      6.91200000	      0.00140504	      0.00883503	      0.01615311
      6.91600000	      0.00143581	      0.00893125	      0.01575864
      6.92000000	      0.00141088	      0.00885336	      0.01691839
      6.92400000	      0.00137921	      0.00875345	      0.01607566
      6.92800000	      0.00137680	      0.00874579	      0.01628114
      6.93200000	      0.00141052	      0.00885224	      0.01697939
      6.93600000	      0.00130702	      0.00852128	      0.01608205
      6.94000000	      0.00130697	      0.00852112	      0.01587790
      6.94400000	      0.00132680	      0.00858552	      0.01624023
      6.94800000	      0.00135816	      0.00868640	      0.01730546
      6.95200000	      0.00138651	      0.00877656	      0.01754502
      6.95600000	      0.00118905	      0.00812762	      0.01476148
      6.96000000	      0.00119480	      0.00814724	      0.01469446
      6.96400000	      0.00121808	      0.00822624	      0.01451793
      6.96800000	      0.00126774	      0.00839226	      0.01499383
      6.97200000	      0.00117127	      0.00806665	      0.01447606
      6.97600000	      0.00120373	      0.00817765	      0.01455231
      6.98000000	      0.00124732	      0.00832440	      0.01461202
      6.98400000	      0.00131454	      0.00854576	      0.01521702
      6.98800000	      0.00122807	      0.00825992	      0.01567783
      6.99200000	      0.00127454	      0.00841472	      0.01527545
      6.99600000	      0.00133930	      0.00862586	      0.01524967
      7.00000000	      0.00124722	      0.00832405	      0.01616301
      7.00400000	      0.00129347	      0.00847698	      0.01573666
      7.00800000	      0.00135995	      0.00869211	      0.01579079
      7.01200000	      0.00146258	      0.00901413	      0.01646883
      7.01600000	      0.00132978	      0.00859515	      0.01681888
      7.02000000	      0.00139538	      0.00880461	      0.01642990
      7.02400000	      0.00133406	      0.00860898	      0.01812273
      7.02800000	      0.00136648	      0.00871297	      0.01733752
      7.03200000	      0.00129033	      0.00846671	      0.01630411
      7.03600000	      0.00135190	      0.00866635	      0.01603189
      7.04000000	      0.00130499	      0.00851465	      0.01730043
      7.04400000	      0.00133672	      0.00861755	      0.01660002
      7.04800000	      0.00144306	      0.00895378	      0.01718887
      7.05200000	      0.00128267	      0.00844152	      0.01677682
      7.05600000	      0.00136774	      0.00871698	      0.01691141
      7.06000000	      0.00146323	      0.00901614	      0.01726515
      7.06400000	      0.00132909	      0.00859294	      0.01602472
      7.06800000	      0.00144745	      0.00896737	      0.01685553
      7.07200000	      0.00134340	      0.00863906	      0.01629881
      7.07600000	      0.00142802	      0.00890698	      0.01697823
      7.08000000	      0.00155940	      0.00930770	      0.01768164
      7.08400000	      0.00141377	      0.00886245	      0.01634965
      7.08800000	      0.00138429	      0.00876955	      0.01749144
      7.09200000	      0.00148653	      0.00908764	      0.01832678
      7.09600000	      0.00136515	      0.00870871	      0.01702595
      7.10000000	      0.00149626	      0.00911733	      0.01804208
      7.10400000	      0.00126454	      0.00838165	      0.01728718
      7.10800000	      0.00130159	      0.00850356	      0.01678822
      7.11200000	      0.00123140	      0.00827111	      0.01550816
      7.11600000	      0.00133373	      0.00860790	      0.01588721
      7.12000000	      0.00154079	      0.00925200	      0.01678267
      7.12400000	      0.00119349	      0.00814277	      0.01587798
      7.12800000	      0.00125589	      0.00835295	      0.01620249
      7.13200000	      0.00118898	      0.00812740	      0.01487630
      7.13600000	      0.00129453	      0.00848047	      0.01559397
      7.14000000	      0.00150152	      0.00913334	      0.01627130
      7.14400000	      0.00135269	      0.00866886	      0.01452831
      7.14800000	      0.00108622	      0.00776824	      0.01513296
      7.15200000	      0.00110915	      0.00784980	      0.01600688
      7.15600000	      0.00119290	      0.00814079	      0.01709255
      7.16000000	      0.00130369	      0.00851043	      0.01786423
      7.16400000	      0.00106890	      0.00770606	      0.01519905
      7.16800000	      0.00110947	      0.00785093	      0.01557693
      7.17200000	      0.00120943	      0.00819700	      0.01607171
      7.17600000	      0.00131761	      0.00855575	      0.01618211
      7.18000000	      0.00107240	      0.00771866	      0.01512394
      7.18400000	      0.00108261	      0.00775532	      0.01550410
      7.18800000	      0.00100827	      0.00748432	      0.01426039
      7.19200000	      0.00102367	      0.00754124	      0.01473772
      7.19600000	      0.00094426	      0.00724286	      0.01437445
      7.20000000	      0.00100274	      0.00746377	      0.01500686
      7.20400000	      0.00107701	      0.00773524	      0.01527661
      7.20800000	      0.00101873	      0.00752302	      0.01461889
      7.21200000	      0.00104664	      0.00762538	      0.01493913
      7.21600000	      0.00108604	      0.00776759	      0.01504518
      7.22000000	      0.00112391	      0.00790185	      0.01511650
      7.22400000	      0.00117889	      0.00809284	      0.01519992
      7.22800000	      0.00101029	      0.00749181	      0.01460278
      7.23200000	      0.00103541	      0.00758436	      0.01444332
      7.23600000	      0.00108662	      0.00776965	      0.01412781
      7.24000000	      0.00111795	      0.00788088	      0.01489254
      7.24400000	      0.00113962	      0.00795690	      0.01563338
      7.24800000	      0.00104936	      0.00763531	      0.01376703
      7.25200000	      0.00104692	      0.00762641	      0.01409776
      7.25600000	      0.00107582	      0.00773096	      0.01517738
      7.26000000	      0.00113305	      0.00793394	      0.01642335
      7.26400000	      0.00103260	      0.00757408	      0.01469905
      7.26800000	      0.00102980	      0.00756382	      0.01403223
      7.27200000	      0.00098968	      0.00741499	      0.01580709
      7.27600000	      0.00095573	      0.00728670	      0.01455289
      7.28000000	      0.00094772	      0.00725613	      0.01301858
      7.28400000	      0.00099790	      0.00744574	      0.01385160
      7.28800000	      0.00099900	      0.00744985	      0.01533010
      7.29200000	      0.00099585	      0.00743807	      0.01372524
      7.29600000	      0.00103317	      0.00757615	      0.01487655
      7.30000000	      0.00107256	      0.00771925	      0.01678908
      7.30400000	      0.00102468	      0.00754497	      0.01501603
      7.30800000	      0.00104640	      0.00762453	      0.01371398
      7.31200000	      0.00109283	      0.00779183	      0.01699131
      7.31600000	      0.00098050	      0.00738051	      0.01490788
      7.32000000	      0.00096533	      0.00732320	      0.01341455
      7.32400000	      0.00108947	      0.00777986	      0.01666192
      7.32800000	      0.00098509	      0.00739778	      0.01438241
      7.33200000	      0.00098143	      0.00738405	      0.01347200
      7.33600000	      0.00109886	      0.00781332	      0.01701712
      7.34000000	      0.00099423	      0.00743203	      0.01482696
      7.34400000	      0.00095540	      0.00728545	      0.01332109
      7.34800000	      0.00109778	      0.00780945	      0.01608408
      7.35200000	      0.00098636	      0.00740256	      0.01401169
      7.35600000	      0.00093658	      0.00721332	      0.01223631
      7.36000000	      0.00096063	      0.00730536	      0.01687762
      7.36400000	      0.00071940	      0.00632190	      0.01281763
      7.36800000	      0.00062626	      0.00589850	      0.01037087
      7.37200000	      0.00064122	      0.00596853	      0.01092719
      7.37600000	      0.00077175	      0.00654791	      0.01357477
      7.38000000	      0.00090321	      0.00708368	      0.01509955
      7.38400000	      0.00078034	      0.00658425	      0.01212774
      7.38800000	      0.00072294	      0.00633747	      0.01249160
      7.39200000	      0.00062088	      0.00587312	      0.00976531
      7.39600000	      0.00067222	      0.00611111	      0.01216104
      7.40000000	      0.00078166	      0.00658979	      0.01332244
      7.40400000	      0.00071521	      0.00630348	      0.01081922
      7.40800000	      0.00079439	      0.00664326	      0.01203300
      7.41200000	      0.00085597	      0.00689594	      0.01316523
      7.41600000	      0.00081192	      0.00671615	      0.01053047
      7.42000000	      0.00074629	      0.00643900	      0.01111482
      7.42400000	      0.00073832	      0.00640451	      0.01032591
      7.42800000	      0.00085025	      0.00687287	      0.01133186
      7.43200000	      0.00092787	      0.00717974	      0.01269588
      7.43600000	      0.00079388	      0.00664110	      0.01238853
      7.44000000	      0.00081626	      0.00673409	      0.01207491
      7.44400000	      0.00091731	      0.00713874	      0.01244717
      7.44800000	      0.00103187	      0.00757142	      0.01327321
      7.45200000	      0.00110434	      0.00783277	      0.01229032
      7.45600000	      0.00107310	      0.00772118	      0.01314601
      7.46000000	      0.00107659	      0.00773374	      0.01263356
      7.46400000	      0.00106888	      0.00770597	      0.01329169
      7.46800000	      0.00112129	      0.00789266	      0.01409430
      7.47200000	      0.00115370	      0.00800591	      0.01369158
      7.47600000	      0.00092375	      0.00716377	      0.01198909
      7.48000000	      0.00095589	      0.00728731	      0.01299430
      7.48400000	      0.00097305	      0.00735243	      0.01370225
      7.48800000	      0.00103362	      0.00757781	      0.01192117
      7.49200000	      0.00123641	      0.00828791	      0.01288956
      7.49600000	      0.00127891	      0.00842914	      0.01327005
      7.50000000	      0.00119641	      0.00815274	      0.01317052
      7.50400000	      0.00108514	      0.00776436	      0.01304995
      7.50800000	      0.00100458	      0.00747063	      0.01276636
      7.51200000	      0.00087244	      0.00696196	      0.01221288
      7.51600000	      0.00090277	      0.00708195	      0.01203644
      7.52000000	      0.00085339	      0.00688553	      0.01173474
      7.52400000	      0.00084374	      0.00684650	      0.01167236
      7.52800000	      0.00086739	      0.00694179	      0.01170257
      7.53200000	      0.00090072	      0.00707390	      0.01260133
      7.53600000	      0.00078640	      0.00660974	      0.01267339
      7.54000000	      0.00080443	      0.00668512	      0.01323585
      7.54400000	      0.00069355	      0.00620732	      0.01359175
      7.54800000	      0.00069505	      0.00621399	      0.01348942
      7.55200000	      0.00070656	      0.00626525	      0.01303407
      7.55600000	      0.00065417	      0.00602848	      0.01163580
      7.56000000	      0.00068823	      0.00618346	      0.01162508
      7.56400000	      0.00072854	      0.00636194	      0.01164227
      7.56800000	      0.00079680	      0.00665330	      0.01296913
      7.57200000	      0.00088318	      0.00700468	      0.01467314
      7.57600000	      0.00098977	      0.00741534	      0.01638975
      7.58000000	      0.00077077	      0.00654373	      0.01696481
      7.58400000	      0.00078758	      0.00661471	      0.01663812
      7.58800000	      0.00083271	      0.00680158	      0.01477460
      7.59200000	      0.00088607	      0.00701614	      0.01529366
      7.59600000	      0.00080518	      0.00668823	      0.01844805
      7.60000000	      0.00080284	      0.00667848	      0.01696118
      7.60400000	      0.00087818	      0.00698484	      0.01720271
      7.60800000	      0.00087160	      0.00695859	      0.01883879
      7.61200000	      0.00091251	      0.00712005	      0.01861618
      7.61600000	      0.00096656	      0.00732788	      0.01791563
      7.62000000	      0.00105084	      0.00764067	      0.01730579
      7.62400000	      0.00095981	      0.00730224	      0.02080114
      7.62800000	      0.00100094	      0.00745707	      0.02063785
      7.63200000	      0.00106962	      0.00770864	      0.01976697
      7.63600000	      0.00099559	      0.00743710	      0.01964014
      7.64000000	      0.00106011	      0.00767432	      0.01953182
      7.64400000	      0.00116679	      0.00805121	      0.01903701
      7.64800000	      0.00108788	      0.00777417	      0.02116380
      7.65200000	      0.00113928	      0.00795572	      0.02108528
      7.65600000	      0.00104900	      0.00763399	      0.02080037
      7.66000000	      0.00107431	      0.00772554	      0.02004388
      7.66400000	      0.00116868	      0.00805770	      0.01931936
      7.66800000	      0.00131123	      0.00853500	      0.01856304
      7.67200000	      0.00120700	      0.00818875	      0.02057435
      7.67600000	      0.00112917	      0.00792034	      0.01983474
      7.68000000	      0.00108822	      0.00777540	      0.01718201
      7.68400000	      0.00120891	      0.00819522	      0.01715022
      7.68800000	      0.00115640	      0.00801526	      0.01942606
      7.69200000	      0.00122108	      0.00823637	      0.01873505
      7.69600000	      0.00134305	      0.00863794	      0.01798507
      7.70000000	      0.00125825	      0.00836078	      0.01896321
      7.70400000	      0.00133095	      0.00859895	      0.01819780
      7.70800000	      0.00148933	      0.00909617	      0.01787620
      7.71200000	      0.00115518	      0.00801103	      0.02016486
      7.71600000	      0.00126188	      0.00837285	      0.02134276
      7.72000000	      0.00141978	      0.00888124	      0.02242951
      7.72400000	      0.00111220	      0.00786060	      0.01899218
      7.72800000	      0.00123026	      0.00826728	      0.01838134
      7.73200000	      0.00117614	      0.00808340	      0.01837922
      7.73600000	      0.00125801	      0.00835998	      0.01766161
      7.74000000	      0.00108878	      0.00777739	      0.01803706
      7.74400000	      0.00115666	      0.00801618	      0.01775175
      7.74800000	      0.00128895	      0.00846218	      0.01755166
      7.75200000	      0.00131008	      0.00853124	      0.02099071
      7.75600000	      0.00142664	      0.00890268	      0.02066890
      7.76000000	      0.00114034	      0.00795939	      0.02086109
      7.76400000	      0.00118940	      0.00812883	      0.02034476
      7.76800000	      0.00130961	      0.00852972	      0.02006148
      7.77200000	      0.00124937	      0.00833125	      0.02176794
      7.77600000	      0.00131350	      0.00854237	      0.02140563
      7.78000000	      0.00146483	      0.00902105	      0.02138500
      7.78400000	      0.00117684	      0.00808578	      0.01990094
      7.78800000	      0.00119583	      0.00815077	      0.01966653
      7.79200000	      0.00126919	      0.00839706	      0.01960010
      7.79600000	      0.00138333	      0.00876650	      0.01960565
      7.80000000	      0.00135893	      0.00868886	      0.02288874
      7.80400000	      0.00143013	      0.00891358	      0.02242361
      7.80800000	      0.00151540	      0.00917544	      0.02220429
      7.81200000	      0.00160034	      0.00942908	      0.02201126
      7.81600000	      0.00145508	      0.00899099	      0.02072386
      7.82000000	      0.00147415	      0.00904971	      0.02058115
      7.82400000	      0.00147567	      0.00905438	      0.02048241
      7.82800000	      0.00146957	      0.00903565	      0.02039763
      7.83200000	      0.00145083	      0.00897783	      0.02057282
      7.83600000	      0.00150632	      0.00914791	      0.02115100
      7.84000000	      0.00155198	      0.00928552	      0.02133637
      7.84400000	      0.00156939	      0.00933746	      0.02154728
      7.84800000	      0.00151456	      0.00917290	      0.02414788
      7.85200000	      0.00149131	      0.00910223	      0.02425582
      7.85600000	      0.00148482	      0.00908242	      0.02440830
      7.86000000	      0.00149778	      0.00912195	      0.02472084
      7.86400000	      0.00151249	      0.00916663	      0.02479353
      7.86800000	      0.00138739	      0.00877935	      0.02246166
      7.87200000	      0.00139554	      0.00880511	      0.02307310
      7.87600000	      0.00143539	      0.00892995	      0.02391110
      7.88000000	      0.00149125	      0.00910206	      0.02475351
      7.88400000	      0.00156307	      0.00931864	      0.02564943
      7.88800000	      0.00145092	      0.00897813	      0.02364814
      7.89200000	      0.00146787	      0.00903040	      0.02478370
      7.89600000	      0.00152148	      0.00919383	      0.02604102
      7.90000000	      0.00159305	      0.00940758	      0.02728874
